start=new Date('2022-08-11T00:00:00.000Z').valueOf();
sats=[{"MEAN_MOTION":"15.08830132","MEAN_MOTION_DOT":"0.00034551","SEMIMAJOR_AXIS":"6917.911","TLE_LINE1":"1 52285U 22041AA  22222.91667824  .00034551  00000-0  21789-2 0  9991","RA_OF_ASC_NODE":"215.4519","CENTER_NAME":"EARTH","PERIOD":"95.438","OBJECT_ID":"2022-041AA","MEAN_MOTION_DDOT":"0.0000000000000","CLASSIFICATION_TYPE":"U","TLE_LINE2":"2 52285  53.2183 215.4519 0002213  51.0858 168.6638 15.08830132  1301","OBJECT_NAME":"STARLINK-3775","RCS_SIZE":"LARGE","MEAN_ELEMENT_THEORY":"SGP4","SITE":"AFETR","REF_FRAME":"TEME","PERIAPSIS":"538.245","EPOCH":"2022-08-10T22:00:00.999936","BSTAR":"0.00217890000000","MEAN_ANOMALY":"168.6638","REV_AT_EPOCH":"130","OBJECT_TYPE":"PAYLOAD","INCLINATION":"53.2183","TIME_SYSTEM":"UTC","FILE":"3533963","ARG_OF_PERICENTER":"51.0858","ELEMENT_SET_NO":"999","GP_ID":"209998813","ECCENTRICITY":"0.00022130","EPHEMERIS_TYPE":"0","APOAPSIS":"541.306","COUNTRY_CODE":"US","DECAY_DATE":null,"LAUNCH_DATE":"2022-04-21","NORAD_CAT_ID":"52285"},{"EPHEMERIS_TYPE":"0","DECAY_DATE":null,"COUNTRY_CODE":"US","APOAPSIS":"540.933","LAUNCH_DATE":"2022-04-21","NORAD_CAT_ID":"52286","ELEMENT_SET_NO":"999","GP_ID":"209998438","ECCENTRICITY":"0.00015950","BSTAR":"0.00218700000000","MEAN_ANOMALY":"286.9178","REV_AT_EPOCH":"130","OBJECT_TYPE":"PAYLOAD","TIME_SYSTEM":"UTC","INCLINATION":"53.2134","ARG_OF_PERICENTER":"67.8364","FILE":"3533963","PERIAPSIS":"538.726","EPOCH":"2022-08-10T22:00:00.999936","RCS_SIZE":"LARGE","MEAN_ELEMENT_THEORY":"SGP4","SITE":"AFETR","REF_FRAME":"TEME","CLASSIFICATION_TYPE":"U","OBJECT_NAME":"STARLINK-3802","TLE_LINE2":"2 52286  53.2134 205.4453 0001595  67.8364 286.9178 15.08812498  1301","TLE_LINE1":"1 52286U 22041AB  22222.91667824  .00034664  00000-0  21870-2 0  9998","CENTER_NAME":"EARTH","RA_OF_ASC_NODE":"205.4453","OBJECT_ID":"2022-041AB","PERIOD":"95.439","MEAN_MOTION_DDOT":"0.0000000000000","MEAN_MOTION":"15.08812498","MEAN_MOTION_DOT":"0.00034664","SEMIMAJOR_AXIS":"6917.964"},{"APOAPSIS":"541.453","DECAY_DATE":null,"COUNTRY_CODE":"US","EPHEMERIS_TYPE":"0","NORAD_CAT_ID":"52287","LAUNCH_DATE":"2022-04-21","ELEMENT_SET_NO":"999","ECCENTRICITY":"0.00023990","GP_ID":"209999211","OBJECT_TYPE":"PAYLOAD","BSTAR":"0.00226450000000","MEAN_ANOMALY":"207.5007","REV_AT_EPOCH":"130","ARG_OF_PERICENTER":"52.2472","FILE":"3533963","INCLINATION":"53.2176","TIME_SYSTEM":"UTC","PERIAPSIS":"538.134","EPOCH":"2022-08-10T22:00:00.999936","MEAN_ELEMENT_THEORY":"SGP4","RCS_SIZE":"LARGE","REF_FRAME":"TEME","SITE":"AFETR","TLE_LINE2":"2 52287  53.2176 215.4521 0002399  52.2472 207.5007 15.08824251  1306","OBJECT_NAME":"STARLINK-3822","CLASSIFICATION_TYPE":"U","RA_OF_ASC_NODE":"215.4521","CENTER_NAME":"EARTH","TLE_LINE1":"1 52287U 22041AC  22222.91667824  .00035921  00000-0  22645-2 0  9997","MEAN_MOTION_DDOT":"0.0000000000000","PERIOD":"95.439","OBJECT_ID":"2022-041AC","MEAN_MOTION":"15.08824251","MEAN_MOTION_DOT":"0.00035921","SEMIMAJOR_AXIS":"6917.929"},{"TIME_SYSTEM":"UTC","INCLINATION":"53.2148","ARG_OF_PERICENTER":"61.9226","FILE":"3533963","REV_AT_EPOCH":"130","BSTAR":"0.00222560000000","MEAN_ANOMALY":"312.8578","OBJECT_TYPE":"PAYLOAD","EPOCH":"2022-08-10T22:00:00.999936","PERIAPSIS":"538.533","LAUNCH_DATE":"2022-04-21","NORAD_CAT_ID":"52288","EPHEMERIS_TYPE":"0","DECAY_DATE":null,"COUNTRY_CODE":"US","APOAPSIS":"541.079","GP_ID":"209998968","ECCENTRICITY":"0.00018400","ELEMENT_SET_NO":"999","OBJECT_ID":"2022-041AD","PERIOD":"95.439","MEAN_MOTION_DDOT":"0.0000000000000","TLE_LINE1":"1 52288U 22041AD  22222.91667824  .00035291  00000-0  22256-2 0  9996","CENTER_NAME":"EARTH","RA_OF_ASC_NODE":"205.4462","SEMIMAJOR_AXIS":"6917.941","MEAN_MOTION_DOT":"0.00035291","MEAN_MOTION":"15.08820204","SITE":"AFETR","REF_FRAME":"TEME","RCS_SIZE":"LARGE","MEAN_ELEMENT_THEORY":"SGP4","CLASSIFICATION_TYPE":"U","OBJECT_NAME":"STARLINK-3776","TLE_LINE2":"2 52288  53.2148 205.4462 0001840  61.9226 312.8578 15.08820204  1300"},{"EPOCH":"2022-08-10T22:00:00.999936","PERIAPSIS":"538.163","INCLINATION":"53.2135","TIME_SYSTEM":"UTC","ARG_OF_PERICENTER":"56.0627","FILE":"3533963","MEAN_ANOMALY":"238.7088","BSTAR":"0.00198360000000","REV_AT_EPOCH":"130","OBJECT_TYPE":"PAYLOAD","GP_ID":"209998416","ECCENTRICITY":"0.00023760","ELEMENT_SET_NO":"999","LAUNCH_DATE":"2022-04-21","NORAD_CAT_ID":"52289","EPHEMERIS_TYPE":"0","APOAPSIS":"541.450","COUNTRY_CODE":"US","DECAY_DATE":null,"SEMIMAJOR_AXIS":"6917.942","MEAN_MOTION_DOT":"0.00031405","MEAN_MOTION":"15.08819953","PERIOD":"95.439","OBJECT_ID":"2022-041AE","MEAN_MOTION_DDOT":"0.0000000000000","TLE_LINE1":"1 52289U 22041AE  22222.91667824  .00031405  00000-0  19836-2 0  9990","RA_OF_ASC_NODE":"205.4493","CENTER_NAME":"EARTH","CLASSIFICATION_TYPE":"U","TLE_LINE2":"2 52289  53.2135 205.4493 0002376  56.0627 238.7088 15.08819953  1307","OBJECT_NAME":"STARLINK-3751","SITE":"AFETR","REF_FRAME":"TEME","RCS_SIZE":"LARGE","MEAN_ELEMENT_THEORY":"SGP4"},{"DECAY_DATE":null,"COUNTRY_CODE":"US","APOAPSIS":"541.040","EPHEMERIS_TYPE":"0","NORAD_CAT_ID":"52290","LAUNCH_DATE":"2022-04-21","ELEMENT_SET_NO":"999","ECCENTRICITY":"0.00017740","GP_ID":"209998836","OBJECT_TYPE":"PAYLOAD","REV_AT_EPOCH":"130","BSTAR":"0.00209090000000","MEAN_ANOMALY":"7.3173","ARG_OF_PERICENTER":"62.2083","FILE":"3533963","TIME_SYSTEM":"UTC","INCLINATION":"53.2149","PERIAPSIS":"538.585","EPOCH":"2022-08-10T22:00:00.999936","MEAN_ELEMENT_THEORY":"SGP4","RCS_SIZE":"LARGE","REF_FRAME":"TEME","SITE":"AFETR","OBJECT_NAME":"STARLINK-3772","TLE_LINE2":"2 52290  53.2149 205.4452 0001774  62.2083   7.3173 15.08818031  1306","CLASSIFICATION_TYPE":"U","CENTER_NAME":"EARTH","RA_OF_ASC_NODE":"205.4452","TLE_LINE1":"1 52290U 22041AF  22222.91667824  .00033126  00000-0  20909-2 0  9997","MEAN_MOTION_DDOT":"0.0000000000000","OBJECT_ID":"2022-041AF","PERIOD":"95.439","MEAN_MOTION":"15.08818031","SEMIMAJOR_AXIS":"6917.948","MEAN_MOTION_DOT":"0.00033126"},{"EPHEMERIS_TYPE":"0","APOAPSIS":"541.196","DECAY_DATE":null,"COUNTRY_CODE":"US","LAUNCH_DATE":"2022-04-21","NORAD_CAT_ID":"52291","ELEMENT_SET_NO":"999","GP_ID":"209999344","ECCENTRICITY":"0.00021030","BSTAR":"0.00052143000000","MEAN_ANOMALY":"280.3672","REV_AT_EPOCH":"130","OBJECT_TYPE":"PAYLOAD","INCLINATION":"53.2137","TIME_SYSTEM":"UTC","ARG_OF_PERICENTER":"54.4139","FILE":"3533963","PERIAPSIS":"538.286","EPOCH":"2022-08-10T22:00:00.999936","RCS_SIZE":"LARGE","MEAN_ELEMENT_THEORY":"SGP4","SITE":"AFETR","REF_FRAME":"TEME","CLASSIFICATION_TYPE":"U","TLE_LINE2":"2 52291  53.2137 205.4474 0002103  54.4139 280.3672 15.08841329  1303","OBJECT_NAME":"STARLINK-3773","TLE_LINE1":"1 52291U 22041AG  22222.91667824  .00008021  00000-0  52143-3 0  9990","RA_OF_ASC_NODE":"205.4474","CENTER_NAME":"EARTH","PERIOD":"95.437","OBJECT_ID":"2022-041AG","MEAN_MOTION_DDOT":"0.0000000000000","MEAN_MOTION":"15.08841329","SEMIMAJOR_AXIS":"6917.876","MEAN_MOTION_DOT":"0.00008021"},{"PERIAPSIS":"538.522","EPOCH":"2022-08-10T22:00:00.999936","BSTAR":"0.00154310000000","REV_AT_EPOCH":"130","MEAN_ANOMALY":"29.6779","OBJECT_TYPE":"PAYLOAD","TIME_SYSTEM":"UTC","INCLINATION":"53.2171","FILE":"3533963","ARG_OF_PERICENTER":"65.0825","ELEMENT_SET_NO":"999","GP_ID":"209998571","ECCENTRICITY":"0.00018480","EPHEMERIS_TYPE":"0","DECAY_DATE":null,"COUNTRY_CODE":"US","APOAPSIS":"541.079","LAUNCH_DATE":"2022-04-21","NORAD_CAT_ID":"52292","MEAN_MOTION":"15.08821831","MEAN_MOTION_DOT":"0.00024344","SEMIMAJOR_AXIS":"6917.936","TLE_LINE1":"1 52292U 22041AH  22222.91667824  .00024344  00000-0  15431-2 0  9995","CENTER_NAME":"EARTH","RA_OF_ASC_NODE":"205.4439","OBJECT_ID":"2022-041AH","PERIOD":"95.439","MEAN_MOTION_DDOT":"0.0000000000000","CLASSIFICATION_TYPE":"U","OBJECT_NAME":"STARLINK-3753","TLE_LINE2":"2 52292  53.2171 205.4439 0001848  65.0825  29.6779 15.08821831  1306","RCS_SIZE":"MEDIUM","MEAN_ELEMENT_THEORY":"SGP4","SITE":"AFETR","REF_FRAME":"TEME"},{"OBJECT_NAME":"STARLINK-3771","TLE_LINE2":"2 52293  53.2150 205.4464 0001723  64.5187 330.2632 15.08835374  1305","CLASSIFICATION_TYPE":"U","REF_FRAME":"TEME","SITE":"AFETR","MEAN_ELEMENT_THEORY":"SGP4","RCS_SIZE":"LARGE","MEAN_MOTION_DOT":"0.00021873","SEMIMAJOR_AXIS":"6917.895","MEAN_MOTION":"15.08835374","MEAN_MOTION_DDOT":"0.0000000000000","OBJECT_ID":"2022-041AJ","PERIOD":"95.438","CENTER_NAME":"EARTH","RA_OF_ASC_NODE":"205.4464","TLE_LINE1":"1 52293U 22041AJ  22222.91667824  .00021873  00000-0  13883-2 0  9999","ECCENTRICITY":"0.00017230","GP_ID":"209998814","ELEMENT_SET_NO":"999","NORAD_CAT_ID":"52293","LAUNCH_DATE":"2022-04-21","DECAY_DATE":null,"COUNTRY_CODE":"US","APOAPSIS":"540.951","EPHEMERIS_TYPE":"0","EPOCH":"2022-08-10T22:00:00.999936","PERIAPSIS":"538.568","FILE":"3533963","ARG_OF_PERICENTER":"64.5187","TIME_SYSTEM":"UTC","INCLINATION":"53.2150","OBJECT_TYPE":"PAYLOAD","MEAN_ANOMALY":"330.2632","BSTAR":"0.00138830000000","REV_AT_EPOCH":"130"},{"RA_OF_ASC_NODE":"205.4362","CENTER_NAME":"EARTH","TLE_LINE1":"1 52294U 22041AK  22222.91667824  .00030846  00000-0  19486-2 0  9995","MEAN_MOTION_DDOT":"0.0000000000000","PERIOD":"95.439","OBJECT_ID":"2022-041AK","MEAN_MOTION":"15.08823830","SEMIMAJOR_AXIS":"6917.930","MEAN_MOTION_DOT":"0.00030846","MEAN_ELEMENT_THEORY":"SGP4","RCS_SIZE":"MEDIUM","REF_FRAME":"TEME","SITE":"AFETR","TLE_LINE2":"2 52294  53.2158 205.4362 0001493  73.3957  41.3717 15.08823830  1306","OBJECT_NAME":"STARLINK-3777","CLASSIFICATION_TYPE":"U","OBJECT_TYPE":"PAYLOAD","REV_AT_EPOCH":"130","BSTAR":"0.00194860000000","MEAN_ANOMALY":"41.3717","FILE":"3533963","ARG_OF_PERICENTER":"73.3957","INCLINATION":"53.2158","TIME_SYSTEM":"UTC","PERIAPSIS":"538.762","EPOCH":"2022-08-10T22:00:00.999936","APOAPSIS":"540.828","COUNTRY_CODE":"US","DECAY_DATE":null,"EPHEMERIS_TYPE":"0","NORAD_CAT_ID":"52294","LAUNCH_DATE":"2022-04-21","ELEMENT_SET_NO":"999","ECCENTRICITY":"0.00014930","GP_ID":"209998439"}];
